[
    {
        "Altitude(m)": 570344.6547929848,
        "Argument of Periapsis(deg)": 0.033114955553567506,
        "Eccentricity": 0.0,
        "Inclination(deg)": 53.0,
        "Latitude(deg)": -49.336685430343174,
        "Longitude(deg)": -104.72981303665875,
        "Mean Anomaly(deg)": 288.63986433788796,
        "RAAN(deg)": 59.950716842640084,
        "Satellite Name": "Starlink Shell 1 278",
        "Satellite Number": 278,
        "Semi-Major Axis(m)": 6931778.249405717,
        "Time(s)": 950
    },
    {
        "Altitude(m)": 570245.4979784401,
        "Argument of Periapsis(deg)": 0.03346353403307874,
        "Eccentricity": 0.0,
        "Inclination(deg)": 53.0,
        "Latitude(deg)": -49.089255224647594,
        "Longitude(deg)": -103.89494823132006,
        "Mean Anomaly(deg)": 289.2666955414447,
        "RAAN(deg)": 59.9501980725626,
        "Satellite Name": "Starlink Shell 1 278",
        "Satellite Number": 278,
        "Semi-Major Axis(m)": 6931778.249405717,
        "Time(s)": 960
    },
    {
        "Altitude(m)": 570143.4961296504,
        "Argument of Periapsis(deg)": 0.03381211251258998,
        "Eccentricity": 0.0,
        "Inclination(deg)": 53.0,
        "Latitude(deg)": -48.83522955206912,
        "Longitude(deg)": -103.0688443371248,
        "Mean Anomaly(deg)": 289.8935267450014,
        "RAAN(deg)": 59.94967930248512,
        "Satellite Name": "Starlink Shell 1 278",
        "Satellite Number": 278,
        "Semi-Major Axis(m)": 6931778.249405717,
        "Time(s)": 970
    },
    {
        "Altitude(m)": 570038.689709419,
        "Argument of Periapsis(deg)": 0.034160690992101214,
        "Eccentricity": 0.0,
        "Inclination(deg)": 53.0,
        "Latitude(deg)": -48.57473148972372,
        "Longitude(deg)": -102.25155942459683,
        "Mean Anomaly(deg)": 290.5203579485581,
        "RAAN(deg)": 59.94916053240766,
        "Satellite Name": "Starlink Shell 1 278",
        "Satellite Number": 278,
        "Semi-Major Axis(m)": 6931778.249405717,
        "Time(s)": 980
    },
    {
        "Altitude(m)": 569931.120276567,
        "Argument of Periapsis(deg)": 0.034509269471612446,
        "Eccentricity": 0.0,
        "Inclination(deg)": 53.0,
        "Latitude(deg)": -48.30788417429661,
        "Longitude(deg)": -101.44313818509328,
        "Mean Anomaly(deg)": 291.1471891521148,
        "RAAN(deg)": 59.94864176233018,
        "Satellite Name": "Starlink Shell 1 278",
        "Satellite Number": 278,
        "Semi-Major Axis(m)": 6931778.249405717,
        "Time(s)": 990
    }
]